     2              NAVIGATION DATA                         RINEX VERSION / TYPE
CCRINEXN V1.6.0 UX  CDDIS               28-DEC-16 17:31     PGM / RUN BY / DATE 
IGS BROADCAST EPHEMERIS FILE                                COMMENT             
    0.7451D-08 -0.1490D-07 -0.5960D-07  0.1192D-06          ION ALPHA           
    0.9216D+05 -0.1147D+06 -0.1311D+06  0.7209D+06          ION BETA            
   -0.465661287308D-08-0.124344978758D-13   405504     1929 DELTA-UTC: A0,A1,T,W
    17                                                      LEAP SECONDS        
                                                            END OF HEADER       
 3 16 12 27  4  0  0.0-0.104107428342D-03-0.125055521494D-11 0.000000000000D+00
    0.340000000000D+02-0.312500000000D-01 0.487341728311D-08-0.224125561777D+01
    0.102445483208D-06 0.414972659200D-03 0.503845512867D-05 0.515354386330D+04
    0.187200000000D+06-0.167638063431D-07 0.128223163217D+01-0.111758708954D-07
    0.959087610831D+00 0.282718750000D+03 0.862101306277D+00-0.816748306560D-08
    0.475019786481D-10 0.000000000000D+00 0.192900000000D+04 0.000000000000D+00
    0.200000000000D+01 0.000000000000D+00 0.186264514923D-08 0.340000000000D+02
    0.180180000000D+06 0.400000000000D+01 0.000000000000D+00 0.000000000000D+00
 4 16 12 27  4  0  0.0 0.397441908717D-05-0.118234311230D-10 0.000000000000D+00
    0.110000000000D+02-0.937500000000D+01 0.476019828137D-08-0.114434053476D+01
   -0.398606061935D-06 0.131814891938D-01 0.985525548458D-05 0.515369914246D+04
    0.187200000000D+06 0.391155481338D-07 0.204787595277D+00 0.309199094772D-06
    0.944505132236D+00 0.181031250000D+03 0.120662539258D+01-0.811748098281D-08
    0.357157734196D-09 0.100000000000D+01 0.192900000000D+04 0.000000000000D+00
    0.200000000000D+01 0.630000000000D+02-0.651925802231D-08 0.110000000000D+02
    0.184800000000D+06 0.400000000000D+01 0.000000000000D+00 0.000000000000D+00
 5 16 12 27  4  0  0.0-0.697583891451D-04 0.216004991671D-11 0.000000000000D+00
    0.290000000000D+02 0.531250000000D+00 0.524664711534D-08 0.204931861382D+01
   -0.130385160446D-07 0.491305196192D-02 0.506266951561D-05 0.515364636803D+04
    0.187200000000D+06-0.689178705216D-07 0.126744570849D+01-0.130385160446D-07
    0.946096866103D+00 0.276718750000D+03 0.566478046553D+00-0.832284667997D-08
    0.121433629627D-10 0.100000000000D+01 0.192900000000D+04 0.000000000000D+00
    0.200000000000D+01 0.000000000000D+00-0.107102096081D-07 0.290000000000D+02
    0.180000000000D+06 0.400000000000D+01 0.000000000000D+00 0.000000000000D+00
 6 16 12 27  4  0  0.0 0.291263684630D-03 0.500222085975D-11 0.000000000000D+00
    0.640000000000D+02-0.381250000000D+01 0.426946344945D-08-0.458743612650D+00
   -0.191852450371D-06 0.457435846329D-03 0.100769102573D-04 0.515358867454D+04
    0.187200000000D+06-0.372529029846D-07 0.231964165919D+00 0.670552253723D-07
    0.966248450001D+00 0.189625000000D+03-0.149004729818D+01-0.777782371841D-08
    0.453947490708D-09 0.100000000000D+01 0.192900000000D+04 0.000000000000D+00
    0.200000000000D+01 0.000000000000D+00 0.419095158577D-08 0.640000000000D+02
    0.180000000000D+06 0.000000000000D+00 0.000000000000D+00 0.000000000000D+00
 7 16 12 27  4  0  0.0 0.398372765630D-03-0.352429196937D-11 0.000000000000D+00
    0.840000000000D+02 0.116937500000D+03 0.424160525131D-08-0.151693284760D+01
    0.596046447754D-05 0.100482793059D-01 0.771135091782D-05 0.515362217140D+04
    0.187200000000D+06 0.124797224999D-06-0.288503650121D+01-0.968575477600D-07
    0.964411080484D+00 0.230718750000D+03-0.261336232958D+01-0.784961268216D-08
    0.284297556420D-09 0.100000000000D+01 0.192900000000D+04 0.000000000000D+00
    0.200000000000D+01 0.000000000000D+00-0.111758708954D-07 0.840000000000D+02
    0.180000000000D+06 0.400000000000D+01 0.000000000000D+00 0.000000000000D+00
 8 16 12 27  4  0  0.0-0.438406132162D-04-0.136424205266D-11 0.000000000000D+00
    0.110000000000D+03-0.119281250000D+03 0.433089468486D-08 0.198030449376D+01
   -0.608712434769D-05 0.228290434461D-02 0.680051743984D-05 0.515356887817D+04
    0.187200000000D+06 0.502914190292D-07-0.821243932449D+00-0.353902578354D-07
    0.965473789527D+00 0.247156250000D+03-0.956919204897D+00-0.800033324599D-08
   -0.282154610015D-09 0.100000000000D+01 0.192900000000D+04 0.000000000000D+00
    0.200000000000D+01 0.000000000000D+00 0.512227416039D-08 0.110000000000D+03
    0.180000000000D+06 0.400000000000D+01 0.000000000000D+00 0.000000000000D+00
 9 16 12 27  4  0  0.0 0.271555036306D-03 0.738964445190D-11 0.000000000000D+00
    0.103000000000D+03-0.256250000000D+01 0.449697303126D-08 0.148222575400D+01
   -0.115483999252D-06 0.839483691379D-03 0.940449535847D-05 0.515372330284D+04
    0.187200000000D+06 0.130385160446D-07 0.232010589576D+01 0.204890966415D-07
    0.953975589895D+00 0.194250000000D+03 0.172472658153D+01-0.792890169915D-08
   -0.443947063606D-09 0.100000000000D+01 0.192900000000D+04 0.000000000000D+00
    0.280000000000D+01 0.000000000000D+00 0.139698386192D-08 0.103000000000D+03
    0.180000000000D+06 0.400000000000D+01 0.000000000000D+00 0.000000000000D+00
10 16 12 27  4  0  0.0-0.115481670946D-03 0.795807864051D-12 0.000000000000D+00
    0.480000000000D+02 0.478125000000D+01 0.486948854803D-08-0.291257391962D+01
    0.296160578728D-06 0.203738408163D-02 0.526383519173D-05 0.515366591644D+04
    0.187200000000D+06 0.130385160446D-07 0.127840806024D+01-0.111758708954D-07
    0.959287015343D+00 0.278281250000D+03-0.294999114942D+01-0.810069456930D-08
    0.128219626576D-09 0.100000000000D+01 0.192900000000D+04 0.000000000000D+00
    0.200000000000D+01 0.000000000000D+00 0.232830643654D-08 0.480000000000D+02
    0.180000000000D+06 0.400000000000D+01 0.000000000000D+00 0.000000000000D+00
11 16 12 27  4  0  0.0-0.669713132083D-03 0.227373675443D-11 0.000000000000D+00
    0.970000000000D+02-0.463750000000D+02 0.564559230444D-08-0.146164104980D+01
   -0.225193798542D-05 0.166568320710D-01 0.102818012238D-04 0.515369828224D+04
    0.187200000000D+06-0.987201929092D-07-0.151409010519D+00 0.432133674622D-06
    0.899499314797D+00 0.148281250000D+03 0.160876803766D+01-0.852856953487D-08
    0.147863301957D-09 0.100000000000D+01 0.192900000000D+04 0.000000000000D+00
    0.200000000000D+01 0.000000000000D+00-0.121071934700D-07 0.970000000000D+02
    0.185370000000D+06 0.400000000000D+01 0.000000000000D+00 0.000000000000D+00
12 16 12 27  4  0  0.0 0.389262568206D-03-0.113686837722D-12 0.000000000000D+00
    0.370000000000D+02-0.471875000000D+01 0.428160691754D-08-0.210525909144D+01
   -0.191852450371D-06 0.620373967104D-02 0.100769102573D-05 0.515360575485D+04
    0.187200000000D+06 0.745058059692D-07-0.180411412642D+01-0.335276126862D-07
    0.989623970336D+00 0.376000000000D+03 0.780704071824D+00-0.815319675623D-08
    0.700029159024D-10 0.100000000000D+01 0.192900000000D+04 0.000000000000D+00
    0.200000000000D+01 0.000000000000D+00-0.125728547573D-07 0.370000000000D+02
    0.180000000000D+06 0.400000000000D+01 0.000000000000D+00 0.000000000000D+00
13 16 12 27  4  0  0.0-0.620312057435D-04-0.193267624127D-11 0.000000000000D+00
    0.450000000000D+02 0.181562500000D+02 0.414267255894D-08-0.473940096982D+00
    0.834465026855D-06 0.406030425802D-02 0.103730708361D-04 0.515369122124D+04
    0.187200000000D+06-0.186264514923D-07 0.244401882994D+01-0.316649675369D-07
    0.970294006583D+00 0.185468750000D+03 0.186314212191D+01-0.775960893314D-08
   -0.421803284086D-09 0.100000000000D+01 0.192900000000D+04 0.000000000000D+00
    0.200000000000D+01 0.000000000000D+00-0.111758708954D-07 0.450000000000D+02
    0.184590000000D+06 0.400000000000D+01 0.000000000000D+00 0.000000000000D+00
14 16 12 27  4  0  0.0-0.513577833772D-04-0.170530256582D-11 0.000000000000D+00
    0.840000000000D+02-0.165625000000D+01 0.435196699118D-08 0.855065031656D+00
   -0.894069671631D-07 0.863729231060D-02 0.103432685137D-04 0.515361560631D+04
    0.187200000000D+06-0.149011611938D-06 0.240559112458D+01-0.186264514923D-07
    0.962762206499D+00 0.180093750000D+03-0.194960359839D+01-0.796211736843D-08
   -0.532879339421D-09 0.100000000000D+01 0.192900000000D+04 0.000000000000D+00
    0.200000000000D+01 0.000000000000D+00-0.931322574616D-08 0.840000000000D+02
    0.184050000000D+06 0.400000000000D+01 0.000000000000D+00 0.000000000000D+00
15 16 12 27  4  0  0.0-0.338678713888D-03-0.113686837722D-11 0.000000000000D+00
    0.780000000000D+02-0.406250000000D+01 0.516914388702D-08 0.457246533971D+00
   -0.121071934700D-06 0.897981657181D-02 0.905059278011D-05 0.515372150993D+04
    0.187200000000D+06 0.242143869400D-07 0.226227914473D+01 0.156462192535D-06
    0.929581531865D+00 0.187562500000D+03 0.552940901922D+00-0.830963184381D-08
   -0.544308386915D-09 0.100000000000D+01 0.192900000000D+04 0.000000000000D+00
    0.200000000000D+01 0.000000000000D+00-0.107102096081D-07 0.780000000000D+02
    0.180000000000D+06 0.400000000000D+01 0.000000000000D+00 0.000000000000D+00
16 16 12 27  4  0  0.0 0.208993442357D-04 0.136424205266D-11 0.000000000000D+00
    0.570000000000D+02 0.618750000000D+01 0.424696261733D-08 0.223452956371D+01
    0.296160578728D-06 0.891900958959D-02 0.122189521790D-05 0.515361872864D+04
    0.187200000000D+06-0.195577740669D-06-0.178527801309D+01 0.428408384323D-07
    0.990106968832D+00 0.373906250000D+03 0.382781595773D+00-0.811283793226D-08
    0.535736601294D-11 0.100000000000D+01 0.192900000000D+04 0.000000000000D+00
    0.200000000000D+01 0.000000000000D+00-0.102445483208D-07 0.570000000000D+02
    0.182430000000D+06 0.400000000000D+01 0.000000000000D+00 0.000000000000D+00
